     2              NAVIGATION DATA                         RINEX VERSION / TYPE
CCRINEXN V1.6.0 LH  bernese             28-APR-08 17:52     PGM / RUN BY / DATE 
    0.9313D-08  0.1490D-07 -0.5960D-07 -0.1192D-06          ION ALPHA           
    0.8806D+05  0.4915D+05 -0.1311D+06 -0.3277D+06          ION BETA            
    0.186264514923D-08 0.888178419700D-15   233472     1477 DELTA-UTC: A0,A1,T,W
    14                                                      LEAP SECONDS        
                                                            END OF HEADER       
 4  8  4 28 16  0  0.0-0.557666644454D-04-0.807176547823D-11 0.000000000000D+00
    0.740000000000D+02 0.227812500000D+02 0.525521890096D-08-0.252075981558D+01
    0.972300767899D-06 0.807920785155D-02 0.681169331074D-05 0.515376183128D+04
    0.144000000000D+06-0.521540641785D-07 0.349628586383D+00-0.251457095146D-06
    0.943299815012D+00 0.241375000000D+03 0.375449230922D+00-0.829320258803D-08
   -0.364300888880D-10 0.100000000000D+01 0.147700000000D+04 0.000000000000D+00
    0.200000000000D+01 0.000000000000D+00-0.605359673500D-08 0.740000000000D+02
    0.143999000000D+06 0.000000000000D+00 0.000000000000D+00 0.000000000000D+00
 7  8  4 28 16  0  0.0-0.571431592107D-04 0.105728759081D-10 0.000000000000D+00
    0.770000000000D+02-0.293125000000D+02 0.441054085959D-08-0.585948647936D+00
   -0.157952308655D-05 0.155290903058D-02 0.458396971226D-05 0.515371506119D+04
    0.144000000000D+06-0.130385160446D-07-0.280174514626D+01-0.122934579849D-06
    0.962081737469D+00 0.294625000000D+03 0.262523407364D+01-0.813819613139D-08
   -0.582167106740D-10 0.100000000000D+01 0.147700000000D+04 0.000000000000D+00
    0.200000000000D+01 0.000000000000D+00-0.465661287308D-09 0.770000000000D+02
    0.143999000000D+06 0.000000000000D+00 0.000000000000D+00 0.000000000000D+00
 8  8  4 28 16  0  0.0-0.150739680976D-03-0.147792889038D-11 0.000000000000D+00
    0.130000000000D+03-0.362812500000D+02 0.393409244217D-08-0.145421657816D+01
   -0.198371708393D-05 0.101147447713D-01 0.504590570927D-05 0.515362030029D+04
    0.144000000000D+06-0.949949026108D-07-0.274957966877D+01-0.108033418655D-06
    0.983255345195D+00 0.294406250000D+03 0.287719731425D+01-0.794497379719D-08
    0.104290058385D-09 0.100000000000D+01 0.147700000000D+04 0.000000000000D+00
    0.200000000000D+01 0.000000000000D+00-0.372529029846D-08 0.130000000000D+03
    0.143999000000D+06 0.000000000000D+00 0.000000000000D+00 0.000000000000D+00
10  8  4 28 16  0  0.0-0.103702768683D-05-0.341060513165D-12 0.000000000000D+00
    0.200000000000D+02 0.340937500000D+02 0.458411951841D-08 0.184736741043D+01
    0.184774398804D-05 0.803829065990D-02 0.835768878460D-05 0.515362514305D+04
    0.144000000000D+06-0.186264514923D-06 0.141220671016D+01 0.100582838058D-06
    0.963908543254D+00 0.224781250000D+03 0.553386806667D+00-0.802319134098D-08
   -0.280368821344D-09 0.100000000000D+01 0.147700000000D+04 0.000000000000D+00
    0.200000000000D+01 0.000000000000D+00-0.232830643654D-08 0.200000000000D+02
    0.143999000000D+06 0.000000000000D+00 0.000000000000D+00 0.000000000000D+00
13  8  4 28 16  0  0.0 0.252801924944D-03 0.181898940355D-11 0.000000000000D+00
    0.910000000000D+02 0.400312500000D+02 0.366372403738D-08 0.157222426650D+01
    0.181049108505D-05 0.373903079890D-02 0.670365989208D-05 0.515364852333D+04
    0.144000000000D+06-0.689178705215D-07 0.248039453375D+01-0.763684511185D-07
    0.995502653973D+00 0.267375000000D+03 0.142383568150D+01-0.772496463293D-08
   -0.732173355102D-10 0.100000000000D+01 0.147700000000D+04 0.000000000000D+00
    0.200000000000D+01 0.000000000000D+00-0.111758708954D-07 0.910000000000D+02
    0.143999000000D+06 0.000000000000D+00 0.000000000000D+00 0.000000000000D+00
23  8  4 28 16  0  0.0 0.350489746779D-03 0.238742359215D-11 0.000000000000D+00
    0.990000000000D+02 0.382812500000D+02 0.428089260207D-08 0.860126110859D+00
    0.180676579475D-05 0.542357657105D-02 0.628829002380D-05 0.515374303055D+04
    0.144000000000D+06 0.391155481339D-07 0.243761638944D+01-0.298023223877D-07
    0.971385075756D+00 0.257656250000D+03 0.272944117652D+01-0.807033616189D-08
   -0.122505102829D-09 0.100000000000D+01 0.147700000000D+04 0.000000000000D+00
    0.200000000000D+01 0.000000000000D+00-0.200234353542D-07 0.990000000000D+02
    0.143999000000D+06 0.000000000000D+00 0.000000000000D+00 0.000000000000D+00
24  8  4 28 16  0  0.0 0.898665748537D-04 0.295585778076D-11 0.000000000000D+00
    0.640000000000D+02 0.233125000000D+02 0.493663420206D-08 0.310661191385D+01
    0.126287341118D-05 0.776611082256D-02 0.693835318089D-05 0.515366730881D+04
    0.144000000000D+06-0.707805156708D-07 0.390826033073D+00 0.156462192535D-06
    0.953472261227D+00 0.239250000000D+03-0.725349788404D+00-0.803569186168D-08
   -0.457161899771D-10 0.100000000000D+01 0.147700000000D+04 0.000000000000D+00
    0.200000000000D+01 0.000000000000D+00-0.931322574615D-09 0.640000000000D+02
    0.143999000000D+06 0.000000000000D+00 0.000000000000D+00 0.000000000000D+00
25  8  4 28 16  0  0.0-0.113113317639D-03-0.278532752418D-10 0.000000000000D+00
    0.330000000000D+02-0.193750000000D+02 0.429125017637D-08-0.264996029600D+01
   -0.101700425148D-05 0.118765896186D-01 0.430643558502D-05 0.515370787239D+04
    0.144000000000D+06 0.145286321640D-06-0.289697826053D+01 0.596046447754D-07
    0.964599690123D+00 0.299375000000D+03-0.124906935374D+01-0.791032949697D-08
   -0.485734518507D-10 0.100000000000D+01 0.147700000000D+04 0.000000000000D+00
    0.200000000000D+01 0.000000000000D+00-0.745058059692D-08 0.330000000000D+02
    0.143999000000D+06 0.000000000000D+00 0.000000000000D+00 0.000000000000D+00
27  8  4 28 16  0  0.0 0.184616073966D-03 0.272848410532D-11 0.000000000000D+00
    0.920000000000D+02-0.280937500000D+02 0.413481508879D-08-0.263464337986D+01
   -0.146031379700D-05 0.210161176510D-01 0.412762165070D-05 0.515356484222D+04
    0.144000000000D+06 0.249594449997D-06-0.286237213169D+01 0.931322574615D-08
    0.969173193359D+00 0.301156250000D+03-0.171504760977D+01-0.771139263903D-08
    0.653598653579D-10 0.100000000000D+01 0.147700000000D+04 0.000000000000D+00
    0.200000000000D+01 0.000000000000D+00-0.419095158577D-08 0.920000000000D+02
    0.143999000000D+06 0.000000000000D+00 0.000000000000D+00 0.000000000000D+00
28  8  4 28 16  0  0.0-0.183545053005D-04-0.454747350886D-12 0.000000000000D+00
    0.105000000000D+03-0.671562500000D+02 0.415874465698D-08 0.238396144191D+01
   -0.353716313839D-05 0.137532767840D-01 0.813975930214D-05 0.515371741104D+04
    0.144000000000D+06 0.726431608200D-07-0.172803197764D+01-0.236555933952D-06
    0.963228707668D+00 0.223375000000D+03-0.210311432626D+01-0.772353600199D-08
    0.134291308058D-09 0.100000000000D+01 0.147700000000D+04 0.000000000000D+00
    0.200000000000D+01 0.000000000000D+00-0.107102096081D-07 0.105000000000D+03
    0.143999000000D+06 0.000000000000D+00 0.000000000000D+00 0.000000000000D+00
